[Satellite]
VERSION=1.1
NAME=COSMOS 2527 (756)
NICKNAME=COSMOS 2527 (756)
TLE1=1 43508U 18053A   19316.77060804  .00000103  00000-0  00000+0 0  9992
TLE2=2 43508  64.8369 154.5496 0005873 217.4830  85.6300  2.13102638 10942
STATUS=0
